COMMENT,ORIGINATOR,NORAD_CAT_ID,OBJECT_NAME,OBJECT_TYPE,CLASSIFICATION_TYPE,INTLDES,EPOCH,EPOCH_MICROSECONDS,MEAN_MOTION,ECCENTRICITY,INCLINATION,RA_OF_ASC_NODE,ARG_OF_PERICENTER,MEAN_ANOMALY,EPHEMERIS_TYPE,ELEMENT_SET_NO,REV_AT_EPOCH,BSTAR,MEAN_MOTION_DOT,MEAN_MOTION_DDOT,FILE,TLE_LINE0,TLE_LINE1,TLE_LINE2,OBJECT_ID,OBJECT_NUMBER,SEMIMAJOR_AXIS,PERIOD,APOGEE,PERIGEE,DECAYED
"GENERATED VIA SPACETRACK.ORG API","18 SPCS","56232","FENGYUN 3G","PAYLOAD","U","23055A","2023-10-23 04:20:30","386400","15.53001843","0.0003453","49.9984","297.608","313.2531","46.8148","0","999","2954","0.00057634","0.0003638","0","4049004","0 FENGYUN 3G","1 56232U 23055A   23296.18090725  .00036380  00000-0  57634-3 0  9995","2 56232  49.9984 297.6080 0003453 313.2531  46.8148 15.53001843 29549","2023-055A","56232","6786.104","92.724","410.312","405.626","0"
"GENERATED VIA SPACETRACK.ORG API","18 SPCS","56232","FENGYUN 3G","PAYLOAD","U","23055A","2023-10-23 12:03:46","77696","15.53022771","0.000343","49.9981","295.9496","314.3941","45.6745","0","999","2959","0.00051597","0.00032529","0","4049626","0 FENGYUN 3G","1 56232U 23055A   23296.50261664  .00032529  00000-0  51597-3 0  9996","2 56232  49.9981 295.9496 0003430 314.3941  45.6745 15.53022771 29598","2023-055A","56232","6786.043","92.722","410.236","405.581","0"
"GENERATED VIA SPACETRACK.ORG API","18 SPCS","56232","FENGYUN 3G","PAYLOAD","U","23055A","2023-10-23 19:47:01","364640","15.53047256","0.0003402","49.998","294.2912","315.4205","44.6489","0","999","2964","0.0005623","0.00035537","0","4050082","0 FENGYUN 3G","1 56232U 23055A   23296.82432135  .00035537  00000-0  56230-3 0  9995","2 56232  49.9980 294.2912 0003402 315.4205  44.6489 15.53047256 29641","2023-055A","56232","6785.972","92.721","410.146","405.528","0"
"GENERATED VIA SPACETRACK.ORG API","18 SPCS","56232","FENGYUN 3G","PAYLOAD","U","23055A","2023-10-23 21:19:40","379520","15.53051898","0.0003395","49.9979","293.9595","315.6173","44.4521","0","999","2965","0.00056804","0.00035912","0","4050204","0 FENGYUN 3G","1 56232U 23055A   23296.88866180  .00035912  00000-0  56804-3 0  9996","2 56232  49.9979 293.9595 0003395 315.6173  44.4521 15.53051898 29652","2023-055A","56232","6785.958","92.721","410.127","405.520","0"
"GENERATED VIA SPACETRACK.ORG API","18 SPCS","56232","FENGYUN 3G","PAYLOAD","U","23055A","2023-10-24 03:30:16","261056","15.53068258","0.0003371","49.9979","292.6328","316.6172","43.453","0","999","2969","0.00053688","0.00033928","0","4050882","0 FENGYUN 3G","1 56232U 23055A   23297.14602154  .00033928  00000-0  53688-3 0  9997","2 56232  49.9979 292.6328 0003371 316.6172  43.4530 15.53068258 29697","2023-055A","56232","6785.911","92.720","410.063","405.488","0"
"GENERATED VIA SPACETRACK.ORG API","18 SPCS","56232","FENGYUN 3G","PAYLOAD","U","23055A","2023-10-24 11:13:30","791136","15.53089213","0.0003357","49.9977","290.9743","317.9394","42.1315","0","999","2974","0.00052351","0.00033093","0","4051559","0 FENGYUN 3G","1 56232U 23055A   23297.46771749  .00033093  00000-0  52351-3 0  9998","2 56232  49.9977 290.9743 0003357 317.9394  42.1315 15.53089213 29748","2023-055A","56232","6785.850","92.718","409.993","405.437","0"
"GENERATED VIA SPACETRACK.ORG API","18 SPCS","56232","FENGYUN 3G","PAYLOAD","U","23055A","2023-10-25 13:28:29","95104","15.5316561","0.0003273","49.9977","285.3345","322.139","37.9347","0","999","2991","0.00051203","0.00032445","0","4052313","0 FENGYUN 3G","1 56232U 23055A   23298.56144786  .00032445  00000-0  51203-3 0  9990","2 56232  49.9977 285.3345 0003273 322.1390  37.9347 15.53165610 29917","2023-055A","56232","6785.627","92.714","409.713","405.271","0"
"GENERATED VIA SPACETRACK.ORG API","18 SPCS","56232","FENGYUN 3G","PAYLOAD","U","23055A","2023-10-25 13:28:29","95104","15.5316561","0.0003273","49.9977","285.3345","322.139","37.9347","0","999","2991","0.00051203","0.00032445","0","4052988","0 FENGYUN 3G","1 56232U 23055A   23298.56144786  .00032445  00000-0  51203-3 0  9990","2 56232  49.9977 285.3345 0003273 322.1390  37.9347 15.53165610 29917","2023-055A","56232","6785.627","92.714","409.713","405.271","0"
"GENERATED VIA SPACETRACK.ORG API","18 SPCS","56232","FENGYUN 3G","PAYLOAD","U","23055A","2023-10-26 03:22:15","731040","15.53207968","0.0003191","49.9976","282.3487","324.6962","35.3794","0","999","3000","0.0005649","0.00035915","0","4053401","0 FENGYUN 3G","1 56232U 23055A   23299.14045985  .00035915  00000-0  56490-3 0  9994","2 56232  49.9976 282.3487 0003191 324.6962  35.3794 15.53207968 30004","2023-055A","56232","6785.504","92.711","409.534","405.204","0"
"GENERATED VIA SPACETRACK.ORG API","18 SPCS","56232","FENGYUN 3G","PAYLOAD","U","23055A","2023-10-26 12:38:06","47232","15.53237998","0.0003143","49.9974","280.358","326.1126","33.964","0","999","3006","0.00058972","0.00037562","0","4054041","0 FENGYUN 3G","1 56232U 23055A   23299.52645888  .00037562  00000-0  58972-3 0  9991","2 56232  49.9974 280.3580 0003143 326.1126  33.9640 15.53237998 30066","2023-055A","56232","6785.416","92.710","409.414","405.149","0"
"GENERATED VIA SPACETRACK.ORG API","18 SPCS","56232","FENGYUN 3G","PAYLOAD","U","23055A","2023-10-26 12:38:06","47232","15.53237998","0.0003143","49.9974","280.358","326.1126","33.964","0","999","3006","0.00058972","0.00037562","0","4054082","0 FENGYUN 3G","1 56232U 23055A   23299.52645888  .00037562  00000-0  58972-3 0  9991","2 56232  49.9974 280.3580 0003143 326.1126  33.9640 15.53237998 30066","2023-055A","56232","6785.416","92.710","409.414","405.149","0"
"GENERATED VIA SPACETRACK.ORG API","18 SPCS","56232","FENGYUN 3G","PAYLOAD","U","23055A","2023-10-26 21:53:55","628160","15.53274525","0.0003083","49.9973","278.3673","327.2979","32.7797","0","999","3012","0.00068931","0.0004408","0","4054421","0 FENGYUN 3G","1 56232U 23055A   23299.91244940  .00044080  00000-0  68931-3 0  9997","2 56232  49.9973 278.3673 0003083 327.2979  32.7797 15.53274525 30120","2023-055A","56232","6785.310","92.707","409.267","405.083","0"
"GENERATED VIA SPACETRACK.ORG API","18 SPCS","56232","FENGYUN 3G","PAYLOAD","U","23055A","2023-10-27 05:37:06","392928","15.53305659","0.0003048","49.9973","276.7086","328.4293","31.6491","0","999","3017","0.00075975","0.00048716","0","4054993","0 FENGYUN 3G","1 56232U 23055A   23300.23410177  .00048716  00000-0  75975-3 0  9998","2 56232  49.9973 276.7086 0003048 328.4293  31.6491 15.53305659 30170","2023-055A","56232","6785.219","92.706","409.152","405.016","0"
"GENERATED VIA SPACETRACK.ORG API","18 SPCS","56232","FENGYUN 3G","PAYLOAD","U","23055A","2023-10-27 11:47:38","620608","15.53326167","0.0003041","49.9973","275.3815","329.3825","30.6964","0","999","3021","0.00068153","0.00043657","0","4055736","0 FENGYUN 3G","1 56232U 23055A   23300.49141922  .00043657  00000-0  68153-3 0  9994","2 56232  49.9973 275.3815 0003041 329.3825  30.6964 15.53326167 30215","2023-055A","56232","6785.160","92.704","409.088","404.961","0"
"GENERATED VIA SPACETRACK.ORG API","18 SPCS","56232","FENGYUN 3G","PAYLOAD","U","23055A","2023-10-27 11:47:38","620608","15.53326167","0.0003041","49.9973","275.3815","329.3825","30.6964","0","999","3021","0.00068153","0.00043657","0","4055819","0 FENGYUN 3G","1 56232U 23055A   23300.49141922  .00043657  00000-0  68153-3 0  9994","2 56232  49.9973 275.3815 0003041 329.3825  30.6964 15.53326167 30215","2023-055A","56232","6785.160","92.704","409.088","404.961","0"
"GENERATED VIA SPACETRACK.ORG API","18 SPCS","56232","FENGYUN 3G","PAYLOAD","U","23055A","2023-10-27 19:30:48","404736","15.53355767","0.0003019","49.9974","273.7225","330.2382","29.8413","0","999","3026","0.00068355","0.00043836","0","4056311","0 FENGYUN 3G","1 56232U 23055A   23300.81306024  .00043836  00000-0  68355-3 0  9999","2 56232  49.9974 273.7225 0003019 330.2382  29.8413 15.53355767 30269","2023-055A","56232","6785.073","92.703","408.987","404.890","0"
"GENERATED VIA SPACETRACK.ORG API","18 SPCS","56232","FENGYUN 3G","PAYLOAD","U","23055A","2023-10-27 22:36:04","180320","15.53367144","0.0003","49.9975","273.0588","330.5266","29.5532","0","999","3028","0.00066921","0.00042919","0","4056385","0 FENGYUN 3G","1 56232U 23055A   23300.94171505  .00042919  00000-0  66921-3 0  9995","2 56232  49.9975 273.0588 0003000 330.5266  29.5532 15.53367144 30282","2023-055A","56232","6785.040","92.702","408.941","404.870","0"
"GENERATED VIA SPACETRACK.ORG API","18 SPCS","56232","FENGYUN 3G","PAYLOAD","U","23055A","2023-10-28 00:08:42","27936","15.53373281","0.000299","49.9976","272.727","330.6306","29.4493","0","999","3029","0.00067369","0.00043221","0","4056846","0 FENGYUN 3G","1 56232U 23055A   23301.00604199  .00043221  00000-0  67369-3 0  9997","2 56232  49.9976 272.7270 0002990 330.6306  29.4493 15.53373281 30295","2023-055A","56232","6785.022","92.701","408.916","404.859","0"
"GENERATED VIA SPACETRACK.ORG API","18 SPCS","56232","FENGYUN 3G","PAYLOAD","U","23055A","2023-10-28 09:24:28","761984","15.5340477","0.0002963","49.9977","270.7361","331.9727","28.1081","0","999","3035","0.00063211","0.00040557","0","4057583","0 FENGYUN 3G","1 56232U 23055A   23301.39199956  .00040557  00000-0  63211-3 0  9990","2 56232  49.9977 270.7361 0002963 331.9727  28.1081 15.53404770 30350","2023-055A","56232","6784.931","92.700","408.806","404.785","0"
"GENERATED VIA SPACETRACK.ORG API","18 SPCS","56232","FENGYUN 3G","PAYLOAD","U","23055A","2023-10-28 09:24:28","761984","15.5340477","0.0002963","49.9977","270.7361","331.9727","28.1081","0","999","3035","0.00063211","0.00040557","0","4057688","0 FENGYUN 3G","1 56232U 23055A   23301.39199956  .00040557  00000-0  63211-3 0  9990","2 56232  49.9977 270.7361 0002963 331.9727  28.1081 15.53404770 30350","2023-055A","56232","6784.931","92.700","408.806","404.785","0"
